STARLINK-1570_new
1 16059C 20055AJ  21326.13732093 -.00001319  00000-0 -88372-4 0  3260
2 16059  53.0531 318.1253 0001900  56.6500 240.7062 15.06408587    14
STARLINK-1570_old
1 26059C 20055AJ  21325.17777412 -.00000692  00000-0 -46371-4 0  3252
2 26059  53.0532 322.4330 0001874  55.3377  75.4781 15.06398315    15
